{
  "type": "FeatureCollection",
  "features": [
    {
      "type": "Feature",
      "properties": {
        "norad_id": 37238,
        "name": "INTELSAT 17 (IS-17)",
        "group": "intelsat",
        "lat": 0.00015361178312477762,
        "lon": 72.93663021314644,
        "alt_km": 35795.87339789524,
        "timestamp": "2025-12-14T18:52:55.165892+00:00",
        "meta_object_name": "INTELSAT 17 (IS-17)",
        "meta_object_id": "2010-065B",
        "meta_epoch": "2025-12-13T22:19:24.572928",
        "meta_mean_motion": 1.00271757,
        "meta_eccentricity": 0.0002606,
        "meta_inclination": 0.0129,
        "meta_ra_of_asc_node": 106.1202,
        "meta_arg_of_pericenter": 173.9466,
        "meta_mean_anomaly": 203.6441,
        "meta_ephemeris_type": 0,
        "meta_classification_type": "U",
        "meta_norad_cat_id": 37238,
        "meta_element_set_no": 999,
        "meta_rev_at_epoch": 5139,
        "meta_bstar": 0,
        "meta_mean_motion_dot": 1.5e-07,
        "meta_mean_motion_ddot": 0,
        "tle_line1": "1 37238U 10065B   25347.93014552  .00000015  00000+0  00000+0 0  9999",
        "tle_line2": "2 37238   0.0129 106.1202 0002606 173.9466 203.6441  1.00271757 51397"
      },
      "geometry": {
        "type": "Point",
        "coordinates": [
          72.93663021314644,
          0.00015361178312477762
        ]
      }
    },
    {
      "type": "Feature",
      "properties": {
        "norad_id": 37392,
        "name": "INTELSAT 28 (IS-28)",
        "group": "intelsat",
        "lat": -1.2520502504349955,
        "lon": -24.719660831125807,
        "alt_km": 35780.043335612965,
        "timestamp": "2025-12-14T18:52:55.165904+00:00",
        "meta_object_name": "INTELSAT 28 (IS-28)",
        "meta_object_id": "2011-016A",
        "meta_epoch": "2025-12-13T21:51:34.738272",
        "meta_mean_motion": 1.00272983,
        "meta_eccentricity": 0.00037395,
        "meta_inclination": 1.3277,
        "meta_ra_of_asc_node": 85.0416,
        "meta_arg_of_pericenter": 182.3185,
        "meta_mean_anomaly": 111.6909,
        "meta_ephemeris_type": 0,
        "meta_classification_type": "U",
        "meta_norad_cat_id": 37392,
        "meta_element_set_no": 999,
        "meta_rev_at_epoch": 5142,
        "meta_bstar": 0,
        "meta_mean_motion_dot": -2.08e-06,
        "meta_mean_motion_ddot": 0,
        "tle_line1": "1 37392U 11016A   25347.91081873 -.00000208  00000+0  00000+0 0  9990",
        "tle_line2": "2 37392   1.3277  85.0416 0003739 182.3185 111.6909  1.00272983 51421"
      },
      "geometry": {
        "type": "Point",
        "coordinates": [
          -24.719660831125807,
          -1.2520502504349955
        ]
      }
    },
    {
      "type": "Feature",
      "properties": {
        "norad_id": 37834,
        "name": "INTELSAT 18 (IS-18)",
        "group": "intelsat",
        "lat": -0.024385779557993835,
        "lon": -173.10429939275616,
        "alt_km": 35785.438587635814,
        "timestamp": "2025-12-14T18:52:55.165916+00:00",
        "meta_object_name": "INTELSAT 18 (IS-18)",
        "meta_object_id": "2011-056A",
        "meta_epoch": "2025-12-13T19:26:31.329312",
        "meta_mean_motion": 1.00272255,
        "meta_eccentricity": 0.00018184,
        "meta_inclination": 0.0174,
        "meta_ra_of_asc_node": 321.8802,
        "meta_arg_of_pericenter": 311.8694,
        "meta_mean_anomaly": 280.6127,
        "meta_ephemeris_type": 0,
        "meta_classification_type": "U",
        "meta_norad_cat_id": 37834,
        "meta_element_set_no": 999,
        "meta_rev_at_epoch": 5195,
        "meta_bstar": 0,
        "meta_mean_motion_dot": 6.9e-07,
        "meta_mean_motion_ddot": 0,
        "tle_line1": "1 37834U 11056A   25347.81008483  .00000069  00000+0  00000+0 0  9994",
        "tle_line2": "2 37834   0.0174 321.8802 0001818 311.8694 280.6127  1.00272255 51953"
      },
      "geometry": {
        "type": "Point",
        "coordinates": [
          -173.10429939275616,
          -0.024385779557993835
        ]
      }
    },
    {
      "type": "Feature",
      "properties": {
        "norad_id": 38098,
        "name": "INTELSAT 22 (IS-22)",
        "group": "intelsat",
        "lat": 0.02075104865466824,
        "lon": 79.03954737324919,
        "alt_km": 35793.50165266784,
        "timestamp": "2025-12-14T18:52:55.165929+00:00",
        "meta_object_name": "INTELSAT 22 (IS-22)",
        "meta_object_id": "2012-011A",
        "meta_epoch": "2025-12-13T22:21:09.404640",
        "meta_mean_motion": 1.00271265,
        "meta_eccentricity": 0.00017405,
        "meta_inclination": 0.0009,
        "meta_ra_of_asc_node": 357.1373,
        "meta_arg_of_pericenter": 270.3689,
        "meta_mean_anomaly": 222.758,
        "meta_ephemeris_type": 0,
        "meta_classification_type": "U",
        "meta_norad_cat_id": 38098,
        "meta_element_set_no": 999,
        "meta_rev_at_epoch": 533,
        "meta_bstar": 0,
        "meta_mean_motion_dot": -4.2e-07,
        "meta_mean_motion_ddot": 0,
        "tle_line1": "1 38098U 12011A   25347.93135885 -.00000042  00000+0  00000+0 0  9991",
        "tle_line2": "2 38098   0.0009 357.1373 0001740 270.3689 222.7580  1.00271265  5336"
      },
      "geometry": {
        "type": "Point",
        "coordinates": [
          79.03954737324919,
          0.02075104865466824
        ]
      }
    },
    {
      "type": "Feature",
      "properties": {
        "norad_id": 38356,
        "name": "INTELSAT 19 (IS-19)",
        "group": "intelsat",
        "lat": 0.0018180408418177938,
        "lon": 172.89938236718763,
        "alt_km": 35788.02270372602,
        "timestamp": "2025-12-14T18:52:55.165941+00:00",
        "meta_object_name": "INTELSAT 19 (IS-19)",
        "meta_object_id": "2012-030A",
        "meta_epoch": "2025-12-13T21:05:16.674144",
        "meta_mean_motion": 1.00272679,
        "meta_eccentricity": 0.0003354,
        "meta_inclination": 0.0111,
        "meta_ra_of_asc_node": 14.4317,
        "meta_arg_of_pericenter": 257.5342,
        "meta_mean_anomaly": 293.1729,
        "meta_ephemeris_type": 0,
        "meta_classification_type": "U",
        "meta_norad_cat_id": 38356,
        "meta_element_set_no": 999,
        "meta_rev_at_epoch": 4859,
        "meta_bstar": 0,
        "meta_mean_motion_dot": -4e-07,
        "meta_mean_motion_ddot": 0,
        "tle_line1": "1 38356U 12030A   25347.87866521 -.00000040  00000+0  00000+0 0  9998",
        "tle_line2": "2 38356   0.0111  14.4317 0003354 257.5342 293.1729  1.00272679 48596"
      },
      "geometry": {
        "type": "Point",
        "coordinates": [
          172.89938236718763,
          0.0018180408418177938
        ]
      }
    },
    {
      "type": "Feature",
      "properties": {
        "norad_id": 38740,
        "name": "INTELSAT 20 (IS-20)",
        "group": "intelsat",
        "lat": 0.014886679113745251,
        "lon": 75.38539746251696,
        "alt_km": 35790.57518722676,
        "timestamp": "2025-12-14T18:52:55.165954+00:00",
        "meta_object_name": "INTELSAT 20 (IS-20)",
        "meta_object_id": "2012-043A",
        "meta_epoch": "2025-12-13T22:20:09.500928",
        "meta_mean_motion": 1.00270541,
        "meta_eccentricity": 0.00033412,
        "meta_inclination": 0.0037,
        "meta_ra_of_asc_node": 35.2383,
        "meta_arg_of_pericenter": 147.3089,
        "meta_mean_anomaly": 303.854,
        "meta_ephemeris_type": 0,
        "meta_classification_type": "U",
        "meta_norad_cat_id": 38740,
        "meta_element_set_no": 999,
        "meta_rev_at_epoch": 4889,
        "meta_bstar": 0,
        "meta_mean_motion_dot": -8e-08,
        "meta_mean_motion_ddot": 0,
        "tle_line1": "1 38740U 12043A   25347.93066552 -.00000008  00000+0  00000+0 0  9996",
        "tle_line2": "2 38740   0.0037  35.2383 0003341 147.3089 303.8540  1.00270541 48893"
      },
      "geometry": {
        "type": "Point",
        "coordinates": [
          75.38539746251696,
          0.014886679113745251
        ]
      }
    },
    {
      "type": "Feature",
      "properties": {
        "norad_id": 38749,
        "name": "INTELSAT 21 (IS-21)",
        "group": "intelsat",
        "lat": -0.0278632011081584,
        "lon": -51.05998177664042,
        "alt_km": 35781.15978687838,
        "timestamp": "2025-12-14T18:52:55.165966+00:00",
        "meta_object_name": "INTELSAT 21 (IS-21)",
        "meta_object_id": "2012-045A",
        "meta_epoch": "2025-12-13T21:44:05.455680",
        "meta_mean_motion": 1.00272012,
        "meta_eccentricity": 0.00017516,
        "meta_inclination": 0.0301,
        "meta_ra_of_asc_node": 74.5963,
        "meta_arg_of_pericenter": 186.3533,
        "meta_mean_anomaly": 89.9094,
        "meta_ephemeris_type": 0,
        "meta_classification_type": "U",
        "meta_norad_cat_id": 38749,
        "meta_element_set_no": 999,
        "meta_rev_at_epoch": 4866,
        "meta_bstar": 0,
        "meta_mean_motion_dot": -2.68e-06,
        "meta_mean_motion_ddot": 0,
        "tle_line1": "1 38749U 12045A   25347.90561870 -.00000268  00000+0  00000+0 0  9995",
        "tle_line2": "2 38749   0.0301  74.5963 0001751 186.3533  89.9094  1.00272012 48662"
      },
      "geometry": {
        "type": "Point",
        "coordinates": [
          -51.05998177664042,
          -0.0278632011081584
        ]
      }
    }
  ]
}